COSMOS 2251 DEB         
1 37303U 93036BJT 17335.71403917  .00005495  00000-0  58506-3 0  9998
2 37303  74.0063 346.1284 0018829 126.1620 234.1306 14.89040271419269
